COSMOS 2228             
1 22286U 92094A   25327.70286301  .00002354  00000+0  20403-3 0  9995
2 22286  82.5175 338.7498 0016555 301.7658  58.1951 14.96599206760209
SL-16 R/B               
1 22566U 93016B   25327.76342156  .00000164  00000+0  10843-3 0  9992
2 22566  71.0085  77.6568 0008385 133.0173 227.1653 14.15288087687185
COSMOS 2242             
1 22626U 93024A   25327.64051903  .00001822  00000+0  15995-3 0  9997
2 22626  82.5200   8.0988 0015028 304.9953  54.9858 14.95991571764534
SL-16 R/B               
1 22803U 93059B   25327.74552421 -.00000193  00000+0 -71564-4 0  9991
2 22803  70.9899 234.5377 0016859   3.9342 356.1911 14.17208202664526
ARIANE 40 R/B           
1 22830U 93061H   25327.76310389  .00000264  00000+0  11273-3 0  9998
2 22830  98.5098  33.6365 0009859 233.8752 126.1520 14.32783521678939
COSMOS 2278             
1 23087U 94023A   25327.65230402  .00000256  00000+0  15863-3 0  9997
2 23087  71.0557  36.9435 0009438 205.0027 155.0640 14.14347802629818
SL-16 R/B               
1 23088U 94023B   25327.32304582  .00000050  00000+0  50396-4 0  9996
2 23088  70.9989 294.2613 0001147 122.8307 237.2926 14.14991475631048
SL-16 R/B               
1 23343U 94074B   25327.67716366  .00000502  00000+0  74224-4 0  9999
2 23343  97.7225 357.7376 0006089 194.3778 278.6515 14.79257437671578
SL-16 R/B               
1 23405U 94077B   25327.77010369 -.00000179  00000+0 -67249-4 0  9993
2 23405  70.9825 215.3197 0004520 299.3887  60.6784 14.15547716601247
ARIANE 40+ R/B          
1 23561U 95021B   25327.77270286  .00000350  00000+0  12585-3 0  9993
2 23561  98.4672  35.5887 0007940  99.2875  11.4534 14.39673952604008
SL-16 R/B               
1 23705U 95058B   25327.63051094 -.00000121  00000+0 -37528-4 0  9995
2 23705  71.0224  42.9234 0014931 279.5427  80.4008 14.15474569552843
SL-16 R/B               
1 24298U 96051B   25327.64991288 -.00000020  00000+0  15795-4 0  9995
2 24298  70.7609  39.6904 0018734 285.1183  74.7864 14.12394003506675
