CCSDS_OMM_VERS = 2.0
CREATION_DATE  = 
ORIGINATOR     = 

OBJECT_NAME    = COSMOS 2228
OBJECT_ID      = 1992-094A
CENTER_NAME    = EARTH
REF_FRAME      = TEME
TIME_SYSTEM    = UTC
MEAN_ELEMENT_THEORY = SGP/SGP4

EPOCH          = 2025-11-23T16:52:07.364064
MEAN_MOTION    = 14.96599206
ECCENTRICITY   = .0016555
INCLINATION    = 82.5175
RA_OF_ASC_NODE = 338.7498
ARG_OF_PERICENTER = 301.7658
MEAN_ANOMALY   = 58.1951

EPHEMERIS_TYPE = 0
CLASSIFICATION_TYPE = U
NORAD_CAT_ID   = 22286
ELEMENT_SET_NO = 999
REV_AT_EPOCH   = 76020
BSTAR          = .20403E-3
MEAN_MOTION_DOT = .2354E-4
MEAN_MOTION_DDOT = 0

CCSDS_OMM_VERS = 2.0
CREATION_DATE  = 
ORIGINATOR     = 

OBJECT_NAME    = SL-16 R/B
OBJECT_ID      = 1993-016B
CENTER_NAME    = EARTH
REF_FRAME      = TEME
TIME_SYSTEM    = UTC
MEAN_ELEMENT_THEORY = SGP/SGP4

EPOCH          = 2025-11-23T18:19:19.622784
MEAN_MOTION    = 14.15288087
ECCENTRICITY   = .0008385
INCLINATION    = 71.0085
RA_OF_ASC_NODE = 77.6568
ARG_OF_PERICENTER = 133.0173
MEAN_ANOMALY   = 227.1653

EPHEMERIS_TYPE = 0
CLASSIFICATION_TYPE = U
NORAD_CAT_ID   = 22566
ELEMENT_SET_NO = 999
REV_AT_EPOCH   = 68718
BSTAR          = .10843E-3
MEAN_MOTION_DOT = .164E-5
MEAN_MOTION_DDOT = 0

CCSDS_OMM_VERS = 2.0
CREATION_DATE  = 
ORIGINATOR     = 

OBJECT_NAME    = COSMOS 2242
OBJECT_ID      = 1993-024A
CENTER_NAME    = EARTH
REF_FRAME      = TEME
TIME_SYSTEM    = UTC
MEAN_ELEMENT_THEORY = SGP/SGP4

EPOCH          = 2025-11-23T15:22:20.844192
MEAN_MOTION    = 14.95991571
ECCENTRICITY   = .0015028
INCLINATION    = 82.5200
RA_OF_ASC_NODE = 8.0988
ARG_OF_PERICENTER = 304.9953
MEAN_ANOMALY   = 54.9858

EPHEMERIS_TYPE = 0
CLASSIFICATION_TYPE = U
NORAD_CAT_ID   = 22626
ELEMENT_SET_NO = 999
REV_AT_EPOCH   = 76453
BSTAR          = .15995E-3
MEAN_MOTION_DOT = .1822E-4
MEAN_MOTION_DDOT = 0

CCSDS_OMM_VERS = 2.0
CREATION_DATE  = 
ORIGINATOR     = 

OBJECT_NAME    = SL-16 R/B
OBJECT_ID      = 1993-059B
CENTER_NAME    = EARTH
REF_FRAME      = TEME
TIME_SYSTEM    = UTC
MEAN_ELEMENT_THEORY = SGP/SGP4

EPOCH          = 2025-11-23T17:53:33.291744
MEAN_MOTION    = 14.17208202
ECCENTRICITY   = .0016859
INCLINATION    = 70.9899
RA_OF_ASC_NODE = 234.5377
ARG_OF_PERICENTER = 3.9342
MEAN_ANOMALY   = 356.1911

EPHEMERIS_TYPE = 0
CLASSIFICATION_TYPE = U
NORAD_CAT_ID   = 22803
ELEMENT_SET_NO = 999
REV_AT_EPOCH   = 66452
BSTAR          = -.71564E-4
MEAN_MOTION_DOT = -.193E-5
MEAN_MOTION_DDOT = 0

CCSDS_OMM_VERS = 2.0
CREATION_DATE  = 
ORIGINATOR     = 

OBJECT_NAME    = ARIANE 40 R/B
OBJECT_ID      = 1993-061H
CENTER_NAME    = EARTH
REF_FRAME      = TEME
TIME_SYSTEM    = UTC
MEAN_ELEMENT_THEORY = SGP/SGP4

EPOCH          = 2025-11-23T18:18:52.176096
MEAN_MOTION    = 14.32783521
ECCENTRICITY   = .0009859
INCLINATION    = 98.5098
RA_OF_ASC_NODE = 33.6365
ARG_OF_PERICENTER = 233.8752
MEAN_ANOMALY   = 126.1520

EPHEMERIS_TYPE = 0
CLASSIFICATION_TYPE = U
NORAD_CAT_ID   = 22830
ELEMENT_SET_NO = 999
REV_AT_EPOCH   = 67893
BSTAR          = .11273E-3
MEAN_MOTION_DOT = .264E-5
MEAN_MOTION_DDOT = 0

CCSDS_OMM_VERS = 2.0
CREATION_DATE  = 
ORIGINATOR     = 

OBJECT_NAME    = COSMOS 2278
OBJECT_ID      = 1994-023A
CENTER_NAME    = EARTH
REF_FRAME      = TEME
TIME_SYSTEM    = UTC
MEAN_ELEMENT_THEORY = SGP/SGP4

EPOCH          = 2025-11-23T15:39:19.067328
MEAN_MOTION    = 14.14347802
ECCENTRICITY   = .0009438
INCLINATION    = 71.0557
RA_OF_ASC_NODE = 36.9435
ARG_OF_PERICENTER = 205.0027
MEAN_ANOMALY   = 155.0640

EPHEMERIS_TYPE = 0
CLASSIFICATION_TYPE = U
NORAD_CAT_ID   = 23087
ELEMENT_SET_NO = 999
REV_AT_EPOCH   = 62981
BSTAR          = .15863E-3
MEAN_MOTION_DOT = .256E-5
MEAN_MOTION_DDOT = 0

CCSDS_OMM_VERS = 2.0
CREATION_DATE  = 
ORIGINATOR     = 

OBJECT_NAME    = SL-16 R/B
OBJECT_ID      = 1994-023B
CENTER_NAME    = EARTH
REF_FRAME      = TEME
TIME_SYSTEM    = UTC
MEAN_ELEMENT_THEORY = SGP/SGP4

EPOCH          = 2025-11-23T07:45:11.158848
MEAN_MOTION    = 14.14991475
ECCENTRICITY   = .0001147
INCLINATION    = 70.9989
RA_OF_ASC_NODE = 294.2613
ARG_OF_PERICENTER = 122.8307
MEAN_ANOMALY   = 237.2926

EPHEMERIS_TYPE = 0
CLASSIFICATION_TYPE = U
NORAD_CAT_ID   = 23088
ELEMENT_SET_NO = 999
REV_AT_EPOCH   = 63104
BSTAR          = .50396E-4
MEAN_MOTION_DOT = .5E-6
MEAN_MOTION_DDOT = 0

CCSDS_OMM_VERS = 2.0
CREATION_DATE  = 
ORIGINATOR     = 

OBJECT_NAME    = SL-16 R/B
OBJECT_ID      = 1994-074B
CENTER_NAME    = EARTH
REF_FRAME      = TEME
TIME_SYSTEM    = UTC
MEAN_ELEMENT_THEORY = SGP/SGP4

EPOCH          = 2025-11-23T16:15:06.940224
MEAN_MOTION    = 14.79257437
ECCENTRICITY   = .0006089
INCLINATION    = 97.7225
RA_OF_ASC_NODE = 357.7376
ARG_OF_PERICENTER = 194.3778
MEAN_ANOMALY   = 278.6515

EPHEMERIS_TYPE = 0
CLASSIFICATION_TYPE = U
NORAD_CAT_ID   = 23343
ELEMENT_SET_NO = 999
REV_AT_EPOCH   = 67157
BSTAR          = .74224E-4
MEAN_MOTION_DOT = .502E-5
MEAN_MOTION_DDOT = 0

CCSDS_OMM_VERS = 2.0
CREATION_DATE  = 
ORIGINATOR     = 

OBJECT_NAME    = SL-16 R/B
OBJECT_ID      = 1994-077B
CENTER_NAME    = EARTH
REF_FRAME      = TEME
TIME_SYSTEM    = UTC
MEAN_ELEMENT_THEORY = SGP/SGP4

EPOCH          = 2025-11-23T18:28:56.958816
MEAN_MOTION    = 14.15547716
ECCENTRICITY   = .000452
INCLINATION    = 70.9825
RA_OF_ASC_NODE = 215.3197
ARG_OF_PERICENTER = 299.3887
MEAN_ANOMALY   = 60.6784

EPHEMERIS_TYPE = 0
CLASSIFICATION_TYPE = U
NORAD_CAT_ID   = 23405
ELEMENT_SET_NO = 999
REV_AT_EPOCH   = 60124
BSTAR          = -.67249E-4
MEAN_MOTION_DOT = -.179E-5
MEAN_MOTION_DDOT = 0

CCSDS_OMM_VERS = 2.0
CREATION_DATE  = 
ORIGINATOR     = 

OBJECT_NAME    = ARIANE 40+ R/B
OBJECT_ID      = 1995-021B
CENTER_NAME    = EARTH
REF_FRAME      = TEME
TIME_SYSTEM    = UTC
MEAN_ELEMENT_THEORY = SGP/SGP4

EPOCH          = 2025-11-23T18:32:41.527104
MEAN_MOTION    = 14.39673952
ECCENTRICITY   = .000794
INCLINATION    = 98.4672
RA_OF_ASC_NODE = 35.5887
ARG_OF_PERICENTER = 99.2875
MEAN_ANOMALY   = 11.4534

EPHEMERIS_TYPE = 0
CLASSIFICATION_TYPE = U
NORAD_CAT_ID   = 23561
ELEMENT_SET_NO = 999
REV_AT_EPOCH   = 60400
BSTAR          = .12585E-3
MEAN_MOTION_DOT = .35E-5
MEAN_MOTION_DDOT = 0

CCSDS_OMM_VERS = 2.0
CREATION_DATE  = 
ORIGINATOR     = 

OBJECT_NAME    = SL-16 R/B
OBJECT_ID      = 1995-058B
CENTER_NAME    = EARTH
REF_FRAME      = TEME
TIME_SYSTEM    = UTC
MEAN_ELEMENT_THEORY = SGP/SGP4

EPOCH          = 2025-11-23T15:07:56.145216
MEAN_MOTION    = 14.15474569
ECCENTRICITY   = .0014931
INCLINATION    = 71.0224
RA_OF_ASC_NODE = 42.9234
ARG_OF_PERICENTER = 279.5427
MEAN_ANOMALY   = 80.4008

EPHEMERIS_TYPE = 0
CLASSIFICATION_TYPE = U
NORAD_CAT_ID   = 23705
ELEMENT_SET_NO = 999
REV_AT_EPOCH   = 55284
BSTAR          = -.37528E-4
MEAN_MOTION_DOT = -.121E-5
MEAN_MOTION_DDOT = 0

CCSDS_OMM_VERS = 2.0
CREATION_DATE  = 
ORIGINATOR     = 

OBJECT_NAME    = SL-16 R/B
OBJECT_ID      = 1996-051B
CENTER_NAME    = EARTH
REF_FRAME      = TEME
TIME_SYSTEM    = UTC
MEAN_ELEMENT_THEORY = SGP/SGP4

EPOCH          = 2025-11-23T15:35:52.472832
MEAN_MOTION    = 14.12394003
ECCENTRICITY   = .0018734
INCLINATION    = 70.7609
RA_OF_ASC_NODE = 39.6904
ARG_OF_PERICENTER = 285.1183
MEAN_ANOMALY   = 74.7864

EPHEMERIS_TYPE = 0
CLASSIFICATION_TYPE = U
NORAD_CAT_ID   = 24298
ELEMENT_SET_NO = 999
REV_AT_EPOCH   = 50667
BSTAR          = .15795E-4
MEAN_MOTION_DOT = -.2E-6
MEAN_MOTION_DDOT = 0

